1 41884U 16078A   17080.53488024 +.00000410 +00000-0 +24148-4 0  9995
2 41884 034.9583 208.5964 0017315 283.4237 076.4552 15.13446932014551
1 41885U 16078B   17080.44559647 +.00002172 +00000-0 +11892-3 0  9994
2 41885 034.9492 208.7638 0015189 280.8707 079.0312 15.13829706014547
1 41886U 16078C   17080.45514128 +.00001997 +00000-0 +10991-3 0  9994
2 41886 034.9624 208.9089 0015960 281.1606 078.7301 15.13688658014549
1 41887U 16078D   17080.60558157 +.00000368 +00000-0 +21860-4 0  9991
2 41887 034.9572 208.2075 0017993 283.9428 075.9283 15.13431969014561
1 41888U 16078E   17080.46389950 +.00000436 +00000-0 +25471-4 0  9997
2 41888 034.9532 208.9222 0017046 283.5020 076.3777 15.13543321014538
1 41889U 16078F   17080.56870377 +.00000524 +00000-0 +29934-4 0  9993
2 41889 034.9601 207.9336 0015142 281.2425 078.6583 15.13946235014553
1 41890U 16078G   17080.56345203 +.00000484 +00000-0 +27713-4 0  9998
2 41890 034.9548 207.8511 0015112 281.2733 078.6272 15.14060142014558
1 41891U 16078H   17080.55901368 +.00000549 +00000-0 +31173-4 0  9995
2 41891 034.9571 207.8363 0014556 281.6830 078.2248 15.14088876014567
